IRIDIUM 36              
1 24967U 97056C   24180.47495096  .00000893  00000+0  29558-3 0  9995
2 24967  86.3971 321.5530 0002319  91.9014 268.2449 14.36862810401416
IRIDIUM 39              
1 25042U 97069D   24180.54929035  .00001280  00000+0  33830-3 0  9996
2 25042  86.3920   2.6873 0019948  51.1083 309.1896 14.48026564397766
IRIDIUM 38              
1 25043U 97069E   24180.61813161  .00000812  00000+0  26596-3 0  9998
2 25043  86.3960  21.8594 0002744 128.3750 231.7694 14.37312221395151
IRIDIUM 42              
1 25077U 97077A   24180.61481550  .00000682  00000+0  22987-3 0  9992
2 25077  86.3963  27.5946 0002028 105.0019 255.1402 14.35607280390455
IRIDIUM 44              
1 25078U 97077B   24180.61436907  .00000887  00000+0  27858-3 0  9998
2 25078  86.3960  10.4723 0003918  98.2082 261.9562 14.39450828392822
IRIDIUM 45              
1 25104U 97082A   24180.59810860  .00019505  00000+0  10780-2 0  9997
2 25104  86.3750 216.8914 0158043 196.8816 162.7127 15.03630480398572
IRIDIUM 24              
1 25105U 97082B   24180.54962988  .00000889  00000+0  26909-3 0  9998
2 25105  86.3915 230.0616 0012365 155.9486 204.2294 14.41237749392267
IRIDIUM 51              
1 25262U 98018A   24180.56604497  .00029676  00000+0  13378-2 0  9992
2 25262  86.3952 226.6931 0145473 140.2649 220.9357 15.11807929393355
